full_name,epoch_mjd,a,e,i,om,w,ma,per_y
"  4501 Eurypylos (1989 CJ3)",57400,5.204961406636572,.05260876369536001,8.304829743740553,244.2760386407461,181.0954599557225,173.9044774166537,11.8750233645786
"  4543 Phoinix (1989 CQ1)",57400,5.120144331144251,.09569589536975769,14.71111970832857,325.3917756447691,85.41811303276218,191.9395336253503,11.5859461974224
"  4707 Khryses (1988 PY)",57400,5.185715899797168,.1234140941598458,7.103016823298003,310.2083541360545,66.79391610423598,89.67032826508952,11.8092218813538
"  4708 Polydoros (1988 RT)",57400,5.261362325607514,.05965709124270437,6.982985849806112,281.1584790056368,104.7455076981357,57.55522667756093,12.0685617885176
"  4709 Ennomos (1988 TU2)",57400,5.239467708100991,.02202654288399851,25.45477826501601,253.1592402886055,89.15473541660124,135.7717316266785,11.993307100104
"  4715 (1989 TS1)",57400,5.108577871527094,.04955949596117081,18.65801762982412,1.608536349114352,346.2644445762243,111.4626152665108,11.5467092169617
"  4722 Agelaos (4271 T-3)",57400,5.206950609286197,.1120637383690512,8.815388540921852,64.99607617367724,315.8004145640605,74.77013646890769,11.8818315086356
"  4754 Panthoos (5010 T-3)",57400,5.23750943213769,.01039425024209125,12.32705169655991,155.0599117365004,202.9199891332932,118.8105005152228,11.9865838950956
"  4791 Iphidamas (1988 PB1)",57400,5.162632842007562,.0468181706181725,25.96653544391389,261.4556764862975,165.8195146132711,24.56462975539228,11.7304605152394
"  4792 Lykaon (1988 RK1)",57400,5.261701591375691,.09090157682415498,9.335160851182781,61.92315429884422,284.1476937844554,108.4742588413601,12.0697291237923
"  4805 Asteropaios (1990 VH7)",57400,5.212175320477429,.09038548339745298,12.01190485963544,278.3813099362675,90.85523421067143,78.18230455283165,11.8997195335564
"  4827 Dares (1988 QE)",57400,5.117024861475175,.04619631702736361,7.706171819555681,242.0703516353807,169.674797560394,51.81904362823087,11.575359629954
"  4828 Misenus (1988 RV)",57400,5.167716356588586,.04311892197917234,14.90105723718823,352.9921909871096,128.994683827032,328.8287482571229,11.7477908133681
"  4829 Sergestus (1988 RM1)",57400,5.143814360412114,.05026943338200027,8.600462344654131,221.9705524886309,124.7792305042713,129.9608124889367,11.6663803720975
"  4832 Palinurus (1988 TU1)",57400,5.266108676738898,.1405855850592808,19.06479125228049,135.1244146738317,210.0504681244005,119.2050909295602,12.084896307524
"  4833 Meges (1989 AL2)",57400,5.245619097580442,.09167654219907867,34.69177079106992,101.7623291183889,279.4789922187018,189.5211007028389,12.0144343854509
"  4834 Thoas (1989 AM2)",57400,5.220720104292026,.1349155985811866,28.46386797300318,76.0347493554126,351.9968747420319,143.6777489586401,11.928993930538
"  4835 (1989 BQ)",57400,5.192625489884334,.2513784299110797,19.571396139,125.473131715318,355.312801769113,109.4718059629459,11.8328321383965
"  4836 Medon (1989 CK1)",57400,5.202649044261253,.1087706012250329,19.4091077830415,82.05589467526048,34.73553387725933,118.7076416743742,11.8671108254409
"  4867 Polites (1989 SZ)",57400,5.160406925502359,.01680787945454561,27.16879282142957,335.2044831109731,277.6917608906841,212.9867939003505,11.7228747895731
"  4902 Thessandrus (1989 AN2)",57400,5.204740011857609,.04216035256409267,9.073036945356392,170.3216633869018,271.5866757456462,136.7474329948049,11.8742657104837
"  4946 Askalaphus (1988 BW1)",57400,5.319552114547729,.05066542211216996,21.86120429657951,59.03798349693901,204.4394765079032,316.923045901625,12.2693287746237
"  5012 Eurymedon (9507 P-L)",57400,5.271693683871075,.0850919894489397,4.99677103828859,34.83345592015586,333.5592960815979,211.0158129021045,12.1041264815721
"  5023 Agapenor (1985 TG3)",57400,5.179433315972696,.05064527721661199,11.77363877909393,308.4088234988126,84.85400984506175,176.4771781314022,11.7877677701233
"  5025 (1986 TS6)",57400,5.200594875082889,.0743264368259258,11.02207670889531,347.8391474099208,73.56392114343299,154.4804888391731,11.8600832573535
"  5027 Androgeos (1988 BX1)",57400,5.305455571336567,.06459349495387674,31.44665741086676,78.22620894124411,344.9879412945847,154.8069159576773,12.2205914500454
"  5028 Halaesus (1988 BY1)",57400,5.263174666476537,.1297218558360134,21.48808414712956,44.06308075522377,11.60707434372463,166.8090261228285,12.0747980719688
"  5041 Theotes (1973 SW1)",57400,5.179489294463851,.03649613579275394,10.5886975842415,29.89745860232269,106.689383438102,105.2609050204967,11.7879588711174
"  5119 (1988 RA1)",57400,5.200836143798701,.1086393947195132,15.95053067953573,316.9774400829397,17.32665111847092,127.6731011458393,11.8609085956984
"  5120 Bitias (1988 TZ1)",57400,5.279224637145369,.1100916525483204,24.98993535374415,295.8833875467539,23.97359497284871,132.7483082476263,12.1300730266748
"  5123 (1989 BL)",57400,5.23138560511393,.1016290375064591,8.529403413330128,78.2264767644745,32.46883867541871,106.8871726668961,11.9655675207767
"  5126 Achaemenides (1989 CH2)",57400,5.240241973309571,.02542398457035477,29.86272777950306,116.4978907256759,353.6068003629244,113.9540416612469,11.9959656745986
"  5130 Ilioneus (1989 SC7)",57400,5.21560876467114,.009842636126239469,15.73441674454888,242.5130104683799,111.4373131861054,81.7156502267575,11.9114796187933
"  5144 Achates (1991 XX)",57400,5.204901780626107,.2710791992929275,8.901322130891645,322.8250418584298,331.4079430859072,148.9508713379657,11.8748193116998
"  5209 (1989 CW1)",57400,5.185467826572522,.05005013668494159,9.05064213756688,322.7092474601802,106.6541473673068,180.2970064875516,11.8083745007491
"  5233 (1988 RL10)",57400,5.14379226386505,.04484145783455942,3.377763373191182,142.5317731995837,43.19159022958589,271.374648563033,11.6663051983758
"  5244 Amphilochos (1973 SQ1)",57400,5.170644084532062,.02747485679691376,6.156766736177666,213.3048603312036,125.3867341858447,251.2037737807085,11.7577756511755